0 FENGYUN 1C DEB
1 30434U 99025AEV 13282.05000520  .00000259  00000-0  24101-3 0   737
2 30434 099.3235 317.4846 0125077 022.5176 007.3651 13.87624598339959
0 FENGYUN 1C DEB
1 30434U 99025AEV 13283.06405789  .00000290  00000-0  26627-3 0   746
2 30434 099.3234 318.4970 0125027 019.7947 033.0214 13.87624969340096
0 FENGYUN 1C DEB
1 30434U 99025AEV 13284.07360128  .00000304  00000-0  27692-3 0   755
2 30434 099.3232 319.5048 0124982 017.0822 036.1530 13.87625441340231
0 FENGYUN 1C DEB
1 30434U 99025AEV 13285.38422969  .00000233  00000-0  22058-3 0   765
2 30434 099.3229 320.8133 0124918 013.5509 103.3525 13.87626568340411
0 FENGYUN 1C DEB
1 30434U 99025AEV 13286.61188510  .00000237  00000-0  22395-3 0   772
2 30434 099.3226 322.0389 0124872 010.2478 116.0624 13.87627544340587
0 FENGYUN 1C DEB
1 30434U 99025AEV 13288.04006163  .00000301  00000-0  27520-3 0   782
2 30434 099.3222 323.4647 0124836 006.4166 050.4645 13.87628810340789
0 FENGYUN 1C DEB
1 30434U 99025AEV 13289.05076641  .00000297  00000-0  27209-3 0   791
2 30434 099.3220 324.4736 0124796 003.6890 059.4245 13.87629319340921
0 FENGYUN 1C DEB
1 30434U 99025AEV 13290.34869568  .00000334  00000-0  30154-3 0   800
2 30434 099.3217 325.7690 0124733 000.1869 063.2131 13.87629811341104
0 FENGYUN 1C DEB
1 30434U 99025AEV 13291.78843889  .00000327  00000-0  29570-3 0   810
2 30434 099.3216 327.2060 0124683 356.3139 055.4209 13.87630847341303
0 FENGYUN 1C DEB
1 30434U 99025AEV 13293.08672198  .00000297  00000-0  27207-3 0   820
2 30434 099.3215 328.5016 0124634 352.8203 060.9705 13.87632190341480
0 FENGYUN 1C DEB
1 30434U 99025AEV 13294.74730755  .00000271  00000-0  25179-3 0   837
2 30434 099.3216 330.1589 0124584 348.3453 076.4108 13.87633800341710
0 FENGYUN 1C DEB
1 30434U 99025AEV 13295.75622738  .00000303  00000-0  27719-3 0   849
2 30434 099.3216 331.1658 0124546 345.6262 076.4677 13.87634249341858
